{
  "norad_id": 36795,
  "name": "CARTOSAT-2B",
  "history": [
    {
      "epoch": "2026-03-27T10:59:25.998720",
      "apogee_km": 642.5050255792003,
      "perigee_km": 624.644793003853,
      "latitude_deg": -84.73045710339866,
      "longitude_deg": -32.53777920012362,
      "semi_major_axis_km": 7011.711909291526,
      "eccentricity": 0.0012736,
      "inclination_deg": 97.9753,
      "raan_deg": 137.5018,
      "arg_perigee_deg": 94.8962,
      "mean_anomaly_deg": 265.3704,
      "mean_motion_rev_day": 14.78654353
    }
  ]
}